     2              NAVIGATION DATA                         RINEX VERSION / TYPE
CCRINEXN V1.6.0 UX  CDDIS               02-JAN-12 10:03     PGM / RUN BY / DATE 
IGS BROADCAST EPHEMERIS FILE                                COMMENT             
    0.1770D-07 -0.7451D-08 -0.5960D-07  0.1192D-06          ION ALPHA           
    0.1372D+06 -0.1966D+06  0.6554D+05  0.1311D+06          ION BETA            
   -0.279396772385D-08-0.115463194561D-13   233472     1669 DELTA-UTC: A0,A1,T,W
    15                                                      LEAP SECONDS        
                                                            END OF HEADER       
16 12  1  1 18  0  0.0-0.216801185161D-03-0.181898940355D-11 0.000000000000D+00
    0.159000000000D+03-0.151250000000D+02 0.406195491101D-08 0.134191660808D+01
   -0.670552253723D-06 0.627785315737D-02 0.683777034283D-05 0.515358706284D+04
    0.648000000000D+05-0.745058059692D-08-0.650479377591D+00 0.124797224999D-06
    0.979033173439D+00 0.256000000000D+03-0.809816867209D-01-0.786282751833D-08
    0.219652006531D-09 0.100000000000D+01 0.166900000000D+04 0.000000000000D+00
    0.200000000000D+01 0.000000000000D+00-0.977888703346D-08 0.159000000000D+03
    0.576000000000D+05 0.000000000000D+00 0.000000000000D+00 0.000000000000D+00
17 12  1  1 18  0  0.0 0.157247763127D-03-0.216004991671D-11 0.000000000000D+00
    0.110000000000D+02-0.305312500000D+02 0.474805491840D-08 0.411465463577D+00
   -0.164657831192D-05 0.697091070469D-02 0.700540840626D-05 0.515361313629D+04
    0.648000000000D+05-0.484287738800D-07 0.390563038438D+00 0.130385160446D-06
    0.962391582055D+00 0.247000000000D+03-0.237844543907D+01-0.817784063989D-08
   -0.253581991279D-10 0.100000000000D+01 0.166900000000D+04 0.000000000000D+00
    0.200000000000D+01 0.000000000000D+00-0.107102096081D-07 0.110000000000D+02
    0.585000000000D+05 0.400000000000D+01 0.000000000000D+00 0.000000000000D+00
18 12  1  1 18  0  0.0 0.174691900611D-03 0.181898940355D-11 0.000000000000D+00
    0.900000000000D+02 0.619375000000D+02 0.529664919813D-08 0.185214908837D+01
    0.308640301228D-05 0.127473826287D-01 0.706687569618D-05 0.515366110230D+04
    0.648000000000D+05-0.333413481712D-06 0.246362917364D+01-0.197440385819D-06
    0.930940394044D+00 0.229468750000D+03-0.220157487334D+01-0.844428030960D-08
    0.157149403046D-10 0.100000000000D+01 0.166900000000D+04 0.000000000000D+00
    0.200000000000D+01 0.000000000000D+00-0.111758708954D-07 0.900000000000D+02
    0.646980000000D+05 0.400000000000D+01 0.000000000000D+00 0.000000000000D+00
20 12  1  1 18  0  0.0 0.591762363911D-04 0.795807864051D-12 0.000000000000D+00
    0.740000000000D+02 0.730937500000D+02 0.522128891621D-08 0.228774680908D+01
    0.365450978279D-05 0.504935707431D-02 0.680610537529D-05 0.515380193710D+04
    0.648000000000D+05 0.484287738800D-07 0.240982018522D+01-0.819563865662D-07
    0.931249932880D+00 0.230156250000D+03 0.126683671617D+01-0.836070539980D-08
    0.100004165575D-10 0.100000000000D+01 0.166900000000D+04 0.000000000000D+00
    0.200000000000D+01 0.000000000000D+00-0.791624188423D-08 0.740000000000D+02
    0.576000000000D+05 0.000000000000D+00 0.000000000000D+00 0.000000000000D+00
21 12  1  1 18  0  0.0-0.194703694433D-03-0.250111042988D-11 0.000000000000D+00
    0.680000000000D+02 0.343750000000D+00 0.511592723740D-08 0.291976948993D+01
   -0.856816768646D-07 0.183580101002D-01 0.957772135735D-05 0.515367258835D+04
    0.648000000000D+05-0.558793544769D-08 0.141121992510D+01-0.240281224251D-06
    0.931088122438D+00 0.179593750000D+03-0.230743466550D+01-0.792782994807D-08
   -0.564309224349D-10 0.100000000000D+01 0.166900000000D+04 0.000000000000D+00
    0.200000000000D+01 0.000000000000D+00-0.111758708954D-07 0.680000000000D+02
    0.585480000000D+05 0.400000000000D+01 0.000000000000D+00 0.000000000000D+00
22 12  1  1 18  0  0.0 0.142978504300D-03 0.000000000000D+00 0.000000000000D+00
    0.220000000000D+02 0.596250000000D+02 0.545308420641D-08 0.990815164549D+00
    0.317394733429D-05 0.573074317072D-02 0.674836337566D-05 0.515369895554D+04
    0.648000000000D+05-0.987201929092D-07 0.246731782503D+01 0.894069671631D-07
    0.928653109924D+00 0.234218750000D+03-0.198534104275D+01-0.863321680811D-08
   -0.267868296988D-10 0.100000000000D+01 0.166900000000D+04 0.000000000000D+00
    0.200000000000D+01 0.000000000000D+00-0.167638063431D-07 0.220000000000D+02
    0.576000000000D+05 0.000000000000D+00 0.000000000000D+00 0.000000000000D+00
23 12  1  1 18  0  0.0 0.245687551796D-03-0.329691829393D-11 0.000000000000D+00
    0.100000000000D+02 0.237500000000D+01 0.456554731623D-08-0.869094939761D+00
    0.409781932831D-07 0.751920172479D-02 0.496953725815D-05 0.515369149208D+04
    0.648000000000D+05 0.856816768646D-07-0.277179198344D+01-0.912696123123D-07
    0.962189822245D+00 0.283343750000D+03-0.302838662226D+01-0.824712924032D-08
   -0.208937274505D-09 0.100000000000D+01 0.166900000000D+04 0.000000000000D+00
    0.200000000000D+01 0.000000000000D+00-0.204890966415D-07 0.100000000000D+02
    0.576000000000D+05 0.000000000000D+00 0.000000000000D+00 0.000000000000D+00
25 12  1  1 18  0  0.0 0.307993032038D-04 0.341060513165D-12 0.000000000000D+00
    0.770000000000D+02-0.129062500000D+02 0.428374979933D-08 0.237620400280D+01
   -0.577419996262D-06 0.107318104710D-02 0.703521072865D-05 0.515378120995D+04
    0.648000000000D+05 0.745058059692D-08-0.700907986580D+00-0.577419996262D-07
    0.966936460373D+00 0.246593750000D+03 0.763840132985D+00-0.797676058539D-08
    0.326799337591D-09 0.100000000000D+01 0.166900000000D+04 0.000000000000D+00
    0.200000000000D+01 0.000000000000D+00 0.512227416039D-08 0.770000000000D+02
    0.576180000000D+05 0.400000000000D+01 0.000000000000D+00 0.000000000000D+00
26 12  1  1 18  0  0.0-0.283175148070D-03-0.140971678775D-10 0.000000000000D+00
    0.810000000000D+02 0.440625000000D+01 0.418481717158D-08-0.100367055717D+01
    0.491738319397D-06 0.205798840616D-01 0.489689409733D-05 0.515365158272D+04
    0.648000000000D+05 0.242143869400D-07-0.270221717662D+01 0.515952706337D-06
    0.985228973827D+00 0.297750000000D+03 0.116734449439D+01-0.821069915143D-08
   -0.280011663610D-09 0.100000000000D+01 0.166900000000D+04 0.000000000000D+00
    0.200000000000D+01 0.000000000000D+00-0.605359673500D-08 0.810000000000D+02
    0.611400000000D+05 0.400000000000D+01 0.000000000000D+00 0.000000000000D+00
27 12  1  1 18  0  0.0 0.341886654496D-03 0.397903932026D-11 0.000000000000D+00
    0.170000000000D+02-0.358437500000D+02 0.396873674239D-08-0.481461056843D-01
   -0.187382102013D-05 0.219494840130D-01 0.791065394878D-05 0.515356860542D+04
    0.648000000000D+05-0.292435288429D-06-0.177788404037D+01-0.352039933205D-06
    0.981643165584D+00 0.246000000000D+03-0.115258603406D+01-0.814748223248D-08
   -0.942896418278D-10 0.100000000000D+01 0.166900000000D+04 0.000000000000D+00
    0.280000000000D+01 0.000000000000D+00-0.419095158577D-08 0.170000000000D+02
    0.576180000000D+05 0.400000000000D+01 0.000000000000D+00 0.000000000000D+00
28 12  1  1 18  0  0.0 0.986224040389D-04 0.363797880709D-11 0.000000000000D+00
    0.330000000000D+02-0.188125000000D+02 0.423767651624D-08 0.998644568983D+00
   -0.100396573544D-05 0.177330464358D-01 0.772811472416D-05 0.515370607567D+04
    0.648000000000D+05-0.270083546638D-06-0.643551878245D+00-0.316649675369D-07
    0.977368621360D+00 0.243718750000D+03-0.185913232051D+01-0.818534095231D-08
    0.222152110670D-09 0.100000000000D+01 0.166900000000D+04 0.000000000000D+00
    0.200000000000D+01 0.000000000000D+00-0.107102096081D-07 0.330000000000D+02
    0.611700000000D+05 0.000000000000D+00 0.000000000000D+00 0.000000000000D+00
29 12  1  1 18  0  0.0 0.271245371550D-03 0.329691829393D-11 0.000000000000D+00
    0.320000000000D+02-0.377500000000D+02 0.461876403790D-08-0.311801211406D+01
   -0.212341547012D-05 0.214046437759D-02 0.664591789246D-05 0.515365696907D+04
    0.648000000000D+05 0.447034835815D-07 0.399054265549D+00 0.372529029846D-07
    0.962885583158D+00 0.249750000000D+03-0.119504750634D+01-0.803497712809D-08
    0.460733465268D-10 0.100000000000D+01 0.166900000000D+04 0.000000000000D+00
    0.200000000000D+01 0.000000000000D+00-0.931322574616D-08 0.320000000000D+02
    0.576180000000D+05 0.400000000000D+01 0.000000000000D+00 0.000000000000D+00
30 12  1  1 18  0  0.0 0.455556437373D-05-0.131876731757D-10 0.000000000000D+00
    0.144000000000D+03-0.126562500000D+02 0.458626246481D-08 0.200478321378D+00
   -0.618398189545D-06 0.109089188045D-01 0.709481537342D-05 0.515359921265D+04
    0.648000000000D+05-0.203028321266D-06-0.790442702849D+00-0.633299350738D-07
    0.958163580570D+00 0.244343750000D+03 0.155364124385D+01-0.829498837670D-08
    0.240009997380D-09 0.100000000000D+01 0.166900000000D+04 0.000000000000D+00
    0.114000000000D+02 0.000000000000D+00-0.419095158577D-08 0.144000000000D+03
    0.576000000000D+05 0.000000000000D+00 0.000000000000D+00 0.000000000000D+00
31 12  1  1 18  0  0.0 0.190101098269D-03 0.488853402203D-11 0.000000000000D+00
    0.800000000000D+01-0.226875000000D+02 0.392373467051D-08-0.245844807079D+01
   -0.112317502499D-05 0.800471112598D-02 0.753626227379D-05 0.515356090736D+04
    0.648000000000D+05 0.447034835815D-07-0.172229205763D+01 0.149011611938D-06
    0.980419926151D+00 0.246500000000D+03-0.936043782301D+00-0.774496555778D-08
   -0.550022909163D-10 0.100000000000D+01 0.166900000000D+04 0.000000000000D+00
    0.200000000000D+01 0.000000000000D+00-0.130385160446D-07 0.800000000000D+01
    0.576180000000D+05 0.400000000000D+01 0.000000000000D+00 0.000000000000D+00
